NORAD_CAT_ID,OBJECT_NAME,OBJECT_TYPE,EPOCH,MEAN_MOTION,ECCENTRICITY,INCLINATION,RA_OF_ASC_NODE,ARG_OF_PERICENTER,MEAN_ANOMALY,BSTAR,MEAN_MOTION_DOT,MEAN_MOTION_DDOT,TLE_LINE0,TLE_LINE1,TLE_LINE2,SEMIMAJOR_AXIS,PERIOD,APOGEE,PERIGEE,DECAYED
53414.0,STARLINK-4304,PAYLOAD,2024-07-07 10:12:11,15.08838639,0.0001196,53.2171,333.7067,95.8683,264.2446,0.00010422,1.371e-05,0.0,0 STARLINK-4304,1 53414U 22097AC  24189.42513151  .00001371  00000-0  10422-3 0  9997,2 53414  53.2171 333.7067 0001196  95.8683 264.2446 15.08838639106515,6917.885,95.438,540.577,538.922,0.0
53414.0,STARLINK-4304,PAYLOAD,2024-07-08 13:13:45,15.08830424,0.0001278,53.2184,328.6513,77.7115,282.402,6.5771e-06,-1.83e-06,0.0,0 STARLINK-4304,1 53414U 22097AC  24190.55121763 -.00000183  00000-0  65771-5 0  9997,2 53414  53.2184 328.6513 0001278  77.7115 282.4020 15.08830424106208,6917.91,95.438,540.659,538.891,0.0
53414.0,STARLINK-4304,PAYLOAD,2024-07-08 16:24:31,15.08837625,0.0001297,53.2174,328.0596,85.5851,274.5289,0.00013857,1.918e-05,0.0,0 STARLINK-4304,1 53414U 22097AC  24190.68369484  .00001918  00000-0  13857-3 0  9997,2 53414  53.2174 328.0596 0001297  85.5851 274.5289 15.08837625106701,6917.888,95.438,540.65,538.855,0.0
53414.0,STARLINK-4304,PAYLOAD,2024-07-09 01:56:49,15.08852859,0.0001308,53.2178,326.276,87.5427,272.5715,0.00031228,4.687e-05,0.0,0 STARLINK-4304,1 53414U 22097AC  24191.08112733  .00004687  00000-0  31228-3 0  9993,2 53414  53.2178 326.2760 0001308  87.5427 272.5715 15.08852859106283,6917.841,95.437,540.611,538.801,0.0
53414.0,STARLINK-4304,PAYLOAD,2024-07-09 13:04:32,15.08830817,0.0001035,53.2161,324.1935,86.2238,273.8873,-0.0001626,-2.874e-05,0.0,0 STARLINK-4304,1 53414U 22097AC  24191.54481553 -.00002874  00000-0 -16260-3 0  9990,2 53414  53.2161 324.1935 0001035  86.2238 273.8873 15.08830817106356,6917.908,95.438,540.489,539.057,0.0
53414.0,STARLINK-4304,PAYLOAD,2024-07-09 14:39:55,15.08832739,0.0001223,53.2164,323.8961,85.2493,274.8638,-0.00010442,-1.949e-05,0.0,0 STARLINK-4304,1 53414U 22097AC  24191.61105577 -.00001949  00000-0 -10442-3 0  9995,2 53414  53.2164 323.8961 0001223  85.2493 274.8638 15.08832739106844,6917.903,95.438,540.614,538.922,0.0
53414.0,STARLINK-4304,PAYLOAD,2024-07-09 17:50:41,15.0883908,0.0001362,53.2175,323.3014,83.5207,276.594,0.00012091,1.637e-05,0.0,0 STARLINK-4304,1 53414U 22097AC  24191.74353460  .00001637  00000-0  12091-3 0  9999,2 53414  53.2175 323.3014 0001362  83.5207 276.5940 15.08839080106861,6917.883,95.438,540.69,538.806,0.0
53414.0,STARLINK-4304,PAYLOAD,2024-07-10 01:47:37,15.08843079,0.0001464,53.2178,321.8156,87.1135,273.0025,0.0004114,6.266e-05,0.0,0 STARLINK-4304,1 53414U 22097AC  24192.07473526  .00006266  00000-0  41140-3 0  9992,2 53414  53.2178 321.8156 0001464  87.1135 273.0025 15.08843079106439,6917.871,95.437,540.749,538.723,0.0
53414.0,STARLINK-4304,PAYLOAD,2024-07-10 17:41:28,15.08843889,0.0001491,53.2173,318.8424,85.2357,274.8805,0.00045054,6.89e-05,0.0,0 STARLINK-4304,1 53414U 22097AC  24192.73713714  .00006890  00000-0  45054-3 0  9992,2 53414  53.2173 318.8424 0001491  85.2357 274.8805 15.08843889106538,6917.869,95.437,540.765,538.702,0.0
53414.0,STARLINK-4304,PAYLOAD,2024-07-11 14:21:29,15.08844055,0.0001193,53.216,314.9754,85.0138,275.099,0.0001916,2.763e-05,0.0,0 STARLINK-4304,1 53414U 22097AC  24193.59825524  .00002763  00000-0  19160-3 0  9994,2 53414  53.2160 314.9754 0001193  85.0138 275.0990 15.08844055107143,6917.868,95.437,540.558,538.908,0.0
53414.0,STARLINK-4304,PAYLOAD,2024-07-12 14:12:16,15.08843224,0.0001228,53.2165,310.5128,84.3175,275.7957,0.00012723,1.738e-05,0.0,0 STARLINK-4304,1 53414U 22097AC  24194.59185608  .00001738  00000-0  12723-3 0  9996,2 53414  53.2165 310.5128 0001228  84.3175 275.7957 15.08843224106817,6917.871,95.437,540.585,538.886,0.0
53414.0,STARLINK-4304,PAYLOAD,2024-07-12 17:23:02,15.08841252,0.0001217,53.2167,309.9197,82.5582,277.5548,0.00011607,1.56e-05,0.0,0 STARLINK-4304,1 53414U 22097AC  24194.72433722  .00001560  00000-0  11607-3 0  9997,2 53414  53.2167 309.9197 0001217  82.5582 277.5548 15.08841252107318,6917.877,95.437,540.583,538.9,0.0
53414.0,STARLINK-4304,PAYLOAD,2024-07-13 14:03:03,15.08846673,0.0001451,53.2195,306.0542,113.2851,246.8294,-1.2481e-05,-4.87e-06,0.0,0 STARLINK-4304,1 53414U 22097AC  24195.58545512 -.00000487  00000-0 -12481-4 0  9994,2 53414  53.2195 306.0542 0001451 113.2851 246.8294 15.08846673107445,6917.86,95.437,540.729,538.721,0.0
53414.0,STARLINK-4304,PAYLOAD,2024-07-14 13:53:50,15.0884392,0.0001293,53.2177,301.5928,94.5353,265.5787,0.00013148,1.805e-05,0.0,0 STARLINK-4304,1 53414U 22097AC  24196.57905466  .00001805  00000-0  13148-3 0  9995,2 53414  53.2177 301.5928 0001293  94.5353 265.5787 15.08843920107116,6917.868,95.437,540.628,538.839,0.0
53414.0,STARLINK-4304,PAYLOAD,2024-07-15 13:44:37,15.08836885,0.0001435,53.2178,297.1387,97.4912,262.6243,9.8064e-05,1.273e-05,0.0,0 STARLINK-4304,1 53414U 22097AC  24197.57265869  .00001273  00000-0  98064-4 0  9992,2 53414  53.2178 297.1387 0001435  97.4912 262.6243 15.08836885107260,6917.89,95.438,540.748,538.762,0.0
53414.0,STARLINK-4304,PAYLOAD,2024-07-16 05:38:28,15.08851767,0.0002491,53.217,294.1621,90.4283,269.6995,0.00021335,3.11e-05,0.0,0 STARLINK-4304,1 53414U 22097AC  24198.23505393  .00003110  00000-0  21335-3 0  9993,2 53414  53.2170 294.1621 0002491  90.4283 269.6995 15.08851767107365,6917.844,95.437,541.433,537.986,0.0
53414.0,STARLINK-4304,PAYLOAD,2024-07-16 12:00:01,15.08832984,0.0001452,53.2169,292.9722,105.2058,254.9095,-0.00010774,-2.002e-05,0.0,0 STARLINK-4304,1 53414U 22097AC  24198.50001814 -.00002002  00000-0 -10774-3 0  9998,2 53414  53.2169 292.9722 0001452 105.2058 254.9095 15.08832984107405,6917.902,95.438,540.771,538.762,0.0
53414.0,STARLINK-4304,PAYLOAD,2024-07-17 05:29:16,15.08846381,0.0001571,53.2172,289.7021,107.788,252.3283,0.0004378,6.688e-05,0.0,0 STARLINK-4304,1 53414U 22097AC  24199.22865812  .00006688  00000-0  43780-3 0  9999,2 53414  53.2172 289.7021 0001571 107.7880 252.3283 15.08846381107516,6917.861,95.437,540.813,538.639,0.0
53414.0,STARLINK-4304,PAYLOAD,2024-07-17 13:26:12,15.0883342,0.0001158,53.2149,288.2104,80.6635,279.4488,0.00016041,2.266e-05,0.0,0 STARLINK-4304,1 53414U 22097AC  24199.55986482  .00002266  00000-0  16041-3 0  9990,2 53414  53.2149 288.2104 0001158  80.6635 279.4488 15.08833420107566,6917.901,95.438,540.567,538.964,0.0
53414.0,STARLINK-4304,PAYLOAD,2024-07-18 13:16:59,15.08843928,0.0001219,53.2155,283.7504,82.1165,277.9966,0.00030244,4.529e-05,0.0,0 STARLINK-4304,1 53414U 22097AC  24200.55346590  .00004529  00000-0  30244-3 0  9998,2 53414  53.2155 283.7504 0001219  82.1165 277.9966 15.08843928108198,6917.868,95.437,540.577,538.89,0.0
53414.0,STARLINK-4304,PAYLOAD,2024-07-19 11:32:23,15.08839586,0.0001199,53.215,279.5886,89.7768,270.3361,0.00019624,2.837e-05,0.0,0 STARLINK-4304,1 53414U 22097AC  24201.48082947  .00002837  00000-0  19624-3 0  9993,2 53414  53.2150 279.5886 0001199  89.7768 270.3361 15.08839586107851,6917.882,95.438,540.576,538.917,0.0
53414.0,STARLINK-4304,PAYLOAD,2024-07-19 22:40:04,15.08852412,0.0001238,53.2164,277.503,92.9225,267.1909,0.00029084,4.345e-05,0.0,0 STARLINK-4304,1 53414U 22097AC  24201.94450165  .00004345  00000-0  29084-3 0  9992,2 53414  53.2164 277.5030 0001238  92.9225 267.1909 15.08852412108400,6917.842,95.437,540.564,538.851,0.0
53414.0,STARLINK-4304,PAYLOAD,2024-07-20 11:23:10,15.08844721,0.0001629,53.2158,275.1257,86.4868,273.631,9.4195e-05,1.212e-05,0.0,0 STARLINK-4304,1 53414U 22097AC  24202.47442598  .00001212  00000-0  94195-4 0  9998,2 53414  53.2158 275.1257 0001629  86.4868 273.6310 15.08844721108483,6917.866,95.437,540.858,538.604,0.0
53414.0,STARLINK-4304,PAYLOAD,2024-07-20 22:30:51,15.08852143,0.0001543,53.2173,273.0451,89.4309,270.686,0.00023249,3.415e-05,0.0,0 STARLINK-4304,1 53414U 22097AC  24202.93810097  .00003415  00000-0  23249-3 0  9990,2 53414  53.2173 273.0451 0001543  89.4309 270.6860 15.08852143108553,6917.843,95.437,540.776,538.641,0.0
53414.0,STARLINK-4304,PAYLOAD,2024-07-21 04:52:24,15.08849799,0.0002169,53.2163,271.8533,99.732,260.3918,0.00011426,1.531e-05,0.0,0 STARLINK-4304,1 53414U 22097AC  24203.20306302  .00001531  00000-0  11426-3 0  9991,2 53414  53.2163 271.8533 0002169  99.7320 260.3918 15.08849799108116,6917.85,95.437,541.216,538.215,0.0
53414.0,STARLINK-4304,PAYLOAD,2024-07-21 11:13:57,15.08839606,0.0001403,53.2158,270.6657,104.753,255.3618,-3.7387e-05,-8.83e-06,0.0,0 STARLINK-4304,1 53414U 22097AC  24203.46802624 -.00000883  00000-0 -37387-4 0  9993,2 53414  53.2158 270.6657 0001403 104.7530 255.3618 15.08839606108155,6917.882,95.438,540.717,538.776,0.0
53414.0,STARLINK-4304,PAYLOAD,2024-07-22 09:29:21,15.08840257,0.0001553,53.2153,266.5026,106.6382,253.4781,0.00011999,1.622e-05,0.0,0 STARLINK-4304,1 53414U 22097AC  24204.39538787  .00001622  00000-0  11999-3 0  9992,2 53414  53.2153 266.5026 0001553 106.6382 253.4781 15.08840257108778,6917.88,95.438,540.819,538.67,0.0
53414.0,STARLINK-4304,PAYLOAD,2024-07-23 10:55:32,15.0883518,0.0001414,53.2156,261.7475,97.6883,262.427,0.00013427,1.849e-05,0.0,0 STARLINK-4304,1 53414U 22097AC  24205.45523373  .00001849  00000-0  13427-3 0  9994,2 53414  53.2156 261.7475 0001414  97.6883 262.4270 15.08835180108454,6917.895,95.438,540.738,538.782,0.0
53414.0,STARLINK-4304,PAYLOAD,2024-07-24 12:21:42,15.08838031,0.0001221,53.2153,256.987,81.2437,278.8693,9.681e-05,1.253e-05,0.0,0 STARLINK-4304,1 53414U 22097AC  24206.51507678  .00001253  00000-0  96810-4 0  9999,2 53414  53.2153 256.9870 0001221  81.2437 278.8693 15.08838031108612,6917.886,95.438,540.596,538.907,0.0
53414.0,STARLINK-4304,PAYLOAD,2024-07-25 12:12:28,15.08859978,0.0001309,53.2158,252.527,85.7286,274.3856,0.00033151,4.995e-05,0.0,0 STARLINK-4304,1 53414U 22097AC  24207.50865748  .00004995  00000-0  33151-3 0  9998,2 53414  53.2158 252.5270 0001309  85.7286 274.3856 15.08859978108762,6917.819,95.436,540.59,538.779,0.0
